ONEWEB-0058             
1 45161U 20008AG  26066.50250087  .00000577  00000+0  16176-2 0  9995
2 45161  87.8768  56.5265 0001994  93.9444 266.1911 13.10371399295108
ONEWEB-0059             
1 45162U 20008AH  26066.49903764  .00000678  00000+0  19049-2 0  9995
2 45162  87.8766  56.5276 0001814  90.0901 270.0435 13.10372369295008
ONEWEB-0062             
1 45163U 20008AJ  26066.52474905 -.00000484  00000+0 -14235-2 0  9999
2 45163  87.8775  56.5049 0002148  96.0924 264.0448 13.10371087294876
ONEWEB-0065             
1 45164U 20008AK  26066.47897133  .00000113  00000+0  28713-3 0  9990
2 45164  87.8773  56.5227 0001716  73.7463 286.3853 13.10376783294564
ONEWEB-0066             
1 45424U 20020A   26066.44311229  .00000439  00000+0  12025-2 0  9996
2 45424  87.8867  41.2959 0001693  87.6011 272.5311 13.11417817289348
ONEWEB-0067             
1 45425U 20020B   26066.63313904 -.00000195  00000+0 -58477-3 0  9993
2 45425  87.8871  41.1671 0001629  80.3562 279.7750 13.11415061289428
ONEWEB-0080             
1 45426U 20020C   26066.48971153 -.00000461  00000+0 -13364-2 0  9994
2 45426  87.8862  41.2843 0002113  90.5341 269.6029 13.11414787289373
ONEWEB-0090             
1 45427U 20020D   26066.43307122 -.00000043  00000+0 -15600-3 0  9991
2 45427  87.8861  41.2968 0001867  84.8832 275.2509 13.11417636289335
ONEWEB-0061             
1 45428U 20020E   26066.61760931  .00000350  00000+0  95215-3 0  9992
2 45428  87.8863  41.2458 0001813  84.7023 275.4312 13.11416426289312
ONEWEB-0081             
1 45429U 20020F   26066.44649875  .00000433  00000+0  11847-2 0  9997
2 45429  87.8865  41.2952 0001631  83.6388 276.4925 13.11416723289405
ONEWEB-0069             
1 45430U 20020G   26066.43547671  .00000118  00000+0  29792-3 0  9998
2 45430  87.8863  41.2920 0001733  82.3203 277.8122 13.11419494289339
ONEWEB-0031             
1 45431U 20020H   26066.48379632 -.00000429  00000+0 -12459-2 0  9992
2 45431  87.8851  41.3005 0001990  86.7241 273.4115 13.11414767289328
ONEWEB-0027             
1 45432U 20020J   26066.39954477  .00000090  00000+0  19901-3 0  9991
2 45432  87.9158  26.0543 0002189  79.4620 280.6758 13.17647353292959
ONEWEB-0064             
1 45433U 20020K   26066.48210356 -.00000388  00000+0 -11309-2 0  9998
2 45433  87.8853  41.2912 0001991  84.2316 275.9039 13.11414135289359
ONEWEB-0018             
1 45434U 20020L   26066.43802291  .00000109  00000+0  27214-3 0  9991
2 45434  87.8866  41.2967 0001760  88.4699 271.6631 13.11418342289296
ONEWEB-0083             
1 45435U 20020M   26066.35239800 -.00000208  00000+0 -62326-3 0  9998
2 45435  87.8869  41.3019 0001869  85.1416 274.9925 13.11417515289327
ONEWEB-0095             
1 45436U 20020N   26066.41949689 -.00000498  00000+0 -14420-2 0  9991
2 45436  87.8863  41.2970 0002258  65.5849 294.5515 13.11417894289336
