[{"OBJECT_NAME":"ONEWEB-0058","OBJECT_ID":"2020-008AG","EPOCH":"2026-03-07T12:03:36.075168","MEAN_MOTION":13.10371399,"ECCENTRICITY":0.00019943,"INCLINATION":87.8768,"RA_OF_ASC_NODE":56.5265,"ARG_OF_PERICENTER":93.9444,"MEAN_ANOMALY":266.1911,"EPHEMERIS_TYPE":0,"CLASSIFICATION_TYPE":"U","NORAD_CAT_ID":45161,"ELEMENT_SET_NO":999,"REV_AT_EPOCH":29510,"BSTAR":0.001617553,"MEAN_MOTION_DOT":5.77e-6,"MEAN_MOTION_DDOT":0},{"OBJECT_NAME":"ONEWEB-0059","OBJECT_ID":"2020-008AH","EPOCH":"2026-03-07T11:58:36.852096","MEAN_MOTION":13.10372369,"ECCENTRICITY":0.00018145,"INCLINATION":87.8766,"RA_OF_ASC_NODE":56.5276,"ARG_OF_PERICENTER":90.0901,"MEAN_ANOMALY":270.0435,"EPHEMERIS_TYPE":0,"CLASSIFICATION_TYPE":"U","NORAD_CAT_ID":45162,"ELEMENT_SET_NO":999,"REV_AT_EPOCH":29500,"BSTAR":0.0019048938,"MEAN_MOTION_DOT":6.78e-6,"MEAN_MOTION_DDOT":0},{"OBJECT_NAME":"ONEWEB-0062","OBJECT_ID":"2020-008AJ","EPOCH":"2026-03-07T12:35:38.317920","MEAN_MOTION":13.10371087,"ECCENTRICITY":0.00021486,"INCLINATION":87.8775,"RA_OF_ASC_NODE":56.5049,"ARG_OF_PERICENTER":96.0924,"MEAN_ANOMALY":264.0448,"EPHEMERIS_TYPE":0,"CLASSIFICATION_TYPE":"U","NORAD_CAT_ID":45163,"ELEMENT_SET_NO":999,"REV_AT_EPOCH":29487,"BSTAR":-0.0014235166,"MEAN_MOTION_DOT":-4.84e-6,"MEAN_MOTION_DDOT":0},{"OBJECT_NAME":"ONEWEB-0065","OBJECT_ID":"2020-008AK","EPOCH":"2026-03-07T11:29:43.122912","MEAN_MOTION":13.10376783,"ECCENTRICITY":0.0001716,"INCLINATION":87.8773,"RA_OF_ASC_NODE":56.5227,"ARG_OF_PERICENTER":73.7463,"MEAN_ANOMALY":286.3853,"EPHEMERIS_TYPE":0,"CLASSIFICATION_TYPE":"U","NORAD_CAT_ID":45164,"ELEMENT_SET_NO":999,"REV_AT_EPOCH":29456,"BSTAR":0.00028713365,"MEAN_MOTION_DOT":1.13e-6,"MEAN_MOTION_DDOT":0},{"OBJECT_NAME":"ONEWEB-0066","OBJECT_ID":"2020-020A","EPOCH":"2026-03-07T10:38:04.901856","MEAN_MOTION":13.11417817,"ECCENTRICITY":0.00016937,"INCLINATION":87.8867,"RA_OF_ASC_NODE":41.2959,"ARG_OF_PERICENTER":87.6011,"MEAN_ANOMALY":272.5311,"EPHEMERIS_TYPE":0,"CLASSIFICATION_TYPE":"U","NORAD_CAT_ID":45424,"ELEMENT_SET_NO":999,"REV_AT_EPOCH":28934,"BSTAR":0.0012025005,"MEAN_MOTION_DOT":4.39e-6,"MEAN_MOTION_DDOT":0},{"OBJECT_NAME":"ONEWEB-0067","OBJECT_ID":"2020-020B","EPOCH":"2026-03-07T15:11:43.213056","MEAN_MOTION":13.11415061,"ECCENTRICITY":0.00016294,"INCLINATION":87.8871,"RA_OF_ASC_NODE":41.1671,"ARG_OF_PERICENTER":80.3562,"MEAN_ANOMALY":279.775,"EPHEMERIS_TYPE":0,"CLASSIFICATION_TYPE":"U","NORAD_CAT_ID":45425,"ELEMENT_SET_NO":999,"REV_AT_EPOCH":28942,"BSTAR":-0.00058476533,"MEAN_MOTION_DOT":-1.95e-6,"MEAN_MOTION_DDOT":0},{"OBJECT_NAME":"ONEWEB-0080","OBJECT_ID":"2020-020C","EPOCH":"2026-03-07T11:45:11.076192","MEAN_MOTION":13.11414787,"ECCENTRICITY":0.00021137,"INCLINATION":87.8862,"RA_OF_ASC_NODE":41.2843,"ARG_OF_PERICENTER":90.5341,"MEAN_ANOMALY":269.6029,"EPHEMERIS_TYPE":0,"CLASSIFICATION_TYPE":"U","NORAD_CAT_ID":45426,"ELEMENT_SET_NO":999,"REV_AT_EPOCH":28937,"BSTAR":-0.0013364277,"MEAN_MOTION_DOT":-4.61e-6,"MEAN_MOTION_DDOT":0},{"OBJECT_NAME":"ONEWEB-0090","OBJECT_ID":"2020-020D","EPOCH":"2026-03-07T10:23:37.353408","MEAN_MOTION":13.11417636,"ECCENTRICITY":0.00018672,"INCLINATION":87.8861,"RA_OF_ASC_NODE":41.2968,"ARG_OF_PERICENTER":84.8832,"MEAN_ANOMALY":275.2509,"EPHEMERIS_TYPE":0,"CLASSIFICATION_TYPE":"U","NORAD_CAT_ID":45427,"ELEMENT_SET_NO":999,"REV_AT_EPOCH":28933,"BSTAR":-0.0001560003,"MEAN_MOTION_DOT":-4.3e-7,"MEAN_MOTION_DDOT":0},{"OBJECT_NAME":"ONEWEB-0061","OBJECT_ID":"2020-020E","EPOCH":"2026-03-07T14:49:21.444384","MEAN_MOTION":13.11416426,"ECCENTRICITY":0.00018132,"INCLINATION":87.8863,"RA_OF_ASC_NODE":41.2458,"ARG_OF_PERICENTER":84.7023,"MEAN_ANOMALY":275.4312,"EPHEMERIS_TYPE":0,"CLASSIFICATION_TYPE":"U","NORAD_CAT_ID":45428,"ELEMENT_SET_NO":999,"REV_AT_EPOCH":28931,"BSTAR":0.00095214727,"MEAN_MOTION_DOT":3.5e-6,"MEAN_MOTION_DDOT":0},{"OBJECT_NAME":"ONEWEB-0081","OBJECT_ID":"2020-020F","EPOCH":"2026-03-07T10:42:57.492000","MEAN_MOTION":13.11416723,"ECCENTRICITY":0.0001631,"INCLINATION":87.8865,"RA_OF_ASC_NODE":41.2952,"ARG_OF_PERICENTER":83.6388,"MEAN_ANOMALY":276.4925,"EPHEMERIS_TYPE":0,"CLASSIFICATION_TYPE":"U","NORAD_CAT_ID":45429,"ELEMENT_SET_NO":999,"REV_AT_EPOCH":28940,"BSTAR":0.0011846783,"MEAN_MOTION_DOT":4.33e-6,"MEAN_MOTION_DDOT":0},{"OBJECT_NAME":"ONEWEB-0069","OBJECT_ID":"2020-020G","EPOCH":"2026-03-07T10:27:05.187744","MEAN_MOTION":13.11419494,"ECCENTRICITY":0.00017334,"INCLINATION":87.8863,"RA_OF_ASC_NODE":41.292,"ARG_OF_PERICENTER":82.3203,"MEAN_ANOMALY":277.8122,"EPHEMERIS_TYPE":0,"CLASSIFICATION_TYPE":"U","NORAD_CAT_ID":45430,"ELEMENT_SET_NO":999,"REV_AT_EPOCH":28933,"BSTAR":0.00029791528,"MEAN_MOTION_DOT":1.18e-6,"MEAN_MOTION_DDOT":0},{"OBJECT_NAME":"ONEWEB-0031","OBJECT_ID":"2020-020H","EPOCH":"2026-03-07T11:36:40.002048","MEAN_MOTION":13.11414767,"ECCENTRICITY":0.00019902,"INCLINATION":87.8851,"RA_OF_ASC_NODE":41.3005,"ARG_OF_PERICENTER":86.7241,"MEAN_ANOMALY":273.4115,"EPHEMERIS_TYPE":0,"CLASSIFICATION_TYPE":"U","NORAD_CAT_ID":45431,"ELEMENT_SET_NO":999,"REV_AT_EPOCH":28932,"BSTAR":-0.0012458938,"MEAN_MOTION_DOT":-4.29e-6,"MEAN_MOTION_DDOT":0},{"OBJECT_NAME":"ONEWEB-0027","OBJECT_ID":"2020-020J","EPOCH":"2026-03-07T09:35:20.668128","MEAN_MOTION":13.17647353,"ECCENTRICITY":0.00021899,"INCLINATION":87.9158,"RA_OF_ASC_NODE":26.0543,"ARG_OF_PERICENTER":79.462,"MEAN_ANOMALY":280.6758,"EPHEMERIS_TYPE":0,"CLASSIFICATION_TYPE":"U","NORAD_CAT_ID":45432,"ELEMENT_SET_NO":999,"REV_AT_EPOCH":29295,"BSTAR":0.00019900779,"MEAN_MOTION_DOT":9.0e-7,"MEAN_MOTION_DDOT":0},{"OBJECT_NAME":"ONEWEB-0064","OBJECT_ID":"2020-020K","EPOCH":"2026-03-07T11:34:13.747584","MEAN_MOTION":13.11414135,"ECCENTRICITY":0.00019916,"INCLINATION":87.8853,"RA_OF_ASC_NODE":41.2912,"ARG_OF_PERICENTER":84.2316,"MEAN_ANOMALY":275.9039,"EPHEMERIS_TYPE":0,"CLASSIFICATION_TYPE":"U","NORAD_CAT_ID":45433,"ELEMENT_SET_NO":999,"REV_AT_EPOCH":28935,"BSTAR":-0.0011309393,"MEAN_MOTION_DOT":-3.88e-6,"MEAN_MOTION_DDOT":0},{"OBJECT_NAME":"ONEWEB-0018","OBJECT_ID":"2020-020L","EPOCH":"2026-03-07T10:30:45.179424","MEAN_MOTION":13.11418342,"ECCENTRICITY":0.00017602,"INCLINATION":87.8866,"RA_OF_ASC_NODE":41.2967,"ARG_OF_PERICENTER":88.4699,"MEAN_ANOMALY":271.6631,"EPHEMERIS_TYPE":0,"CLASSIFICATION_TYPE":"U","NORAD_CAT_ID":45434,"ELEMENT_SET_NO":999,"REV_AT_EPOCH":28929,"BSTAR":0.00027214179,"MEAN_MOTION_DOT":1.09e-6,"MEAN_MOTION_DDOT":0},{"OBJECT_NAME":"ONEWEB-0083","OBJECT_ID":"2020-020M","EPOCH":"2026-03-07T08:27:27.187200","MEAN_MOTION":13.11417515,"ECCENTRICITY":0.00018694,"INCLINATION":87.8869,"RA_OF_ASC_NODE":41.3019,"ARG_OF_PERICENTER":85.1416,"MEAN_ANOMALY":274.9925,"EPHEMERIS_TYPE":0,"CLASSIFICATION_TYPE":"U","NORAD_CAT_ID":45435,"ELEMENT_SET_NO":999,"REV_AT_EPOCH":28932,"BSTAR":-0.00062326027,"MEAN_MOTION_DOT":-2.08e-6,"MEAN_MOTION_DDOT":0},{"OBJECT_NAME":"ONEWEB-0095","OBJECT_ID":"2020-020N","EPOCH":"2026-03-07T10:04:04.531296","MEAN_MOTION":13.11417894,"ECCENTRICITY":0.00022581,"INCLINATION":87.8863,"RA_OF_ASC_NODE":41.297,"ARG_OF_PERICENTER":65.5849,"MEAN_ANOMALY":294.5515,"EPHEMERIS_TYPE":0,"CLASSIFICATION_TYPE":"U","NORAD_CAT_ID":45436,"ELEMENT_SET_NO":999,"REV_AT_EPOCH":28933,"BSTAR":-0.0014419716,"MEAN_MOTION_DOT":-4.98e-6,"MEAN_MOTION_DDOT":0}]
